[Satellite]
VERSION=1.1
NAME=XMM-NEWTON
NICKNAME=XMM-NEWTON
TLE1=1 25989U 99066A   20159.57972306 -.00000338  00000-0  00000+0 0  9993
TLE2=2 25989  71.1288 321.2824 7136193  93.2397 359.9017  0.50134038 26339
STATUS=0
